     2.100          NAVIGATION                              RINEX VERSION / TYPE
fic2rin                                 05/06/2011 00:06:24 PGM / RUN BY / DATE
                                                            END OF HEADER
10 11  5  5 11 59 44.0 -.731316395104D-04 -.795807864051D-12  .000000000000D+00
     .190000000000D+02  .114562500000D+03  .460233456285D-08  .208373456770D+01
     .577978789806D-05  .101305211429D-01  .107623636723D-04  .515360961914D+04
     .388784000000D+06 -.273808836937D-06  .575605514292D+00 -.108033418655D-06
     .949779105518D+00  .166062500000D+03  .706617747065D+00 -.791818696713D-08
    -.104647216119D-09  .100000000000D+01  .163400000000D+04  .000000000000D+00
     .240000000000D+01  .000000000000D+00 -.232830643654D-08  .190000000000D+02
     .381606000000D+06  .400000000000D+01
15 11  5  5 11 59 44.0 -.130309723318D-03  .272848410532D-11  .000000000000D+00
     .500000000000D+01  .714062500000D+02  .498092176110D-08  .471404897986D+00
     .365450978279D-05  .339700723998D-02  .155344605446D-05  .515360831261D+04
     .388784000000D+06  .111758708954D-07  .158270336229D+01  .745058059692D-08
     .949876133559D+00  .338937500000D+03 -.482343518286D-01 -.856857120110D-08
     .421446126351D-10  .100000000000D+01  .163400000000D+04  .000000000000D+00
     .240000000000D+01  .000000000000D+00 -.102445483208D-07  .500000000000D+01
     .381606000000D+06  .400000000000D+01
20 11  5  5 11 59 44.0  .491631217301D-04  .113686837722D-12  .000000000000D+00
     .250000000000D+02  .106468750000D+03  .485377360772D-08  .296707837198D+01
     .551156699657D-05  .462316686753D-02  .993534922600D-05  .515367867470D+04
     .388784000000D+06  .633299350739D-07  .516474083184D+00 -.119209289551D-06
     .933854194776D+00  .169875000000D+03  .129328032243D+01 -.804426364730D-08
    -.153934983439D-09  .100000000000D+01  .163400000000D+04  .000000000000D+00
     .240000000000D+01  .000000000000D+00 -.745058059692D-08  .250000000000D+02
     .381606000000D+06  .400000000000D+01
 1 11  5  5 12  0  0.0 -.226968433708D-03 -.238742359215D-11  .000000000000D+00
     .128000000000D+03 -.455000000000D+02  .403623955415D-08  .184922460687D+01
    -.234879553318D-05  .475136458408D-02  .109244138002D-04  .515360572815D+04
     .388800000000D+06 -.763684511185D-07 -.258801383161D+01 -.633299350739D-07
     .969002050962D+00  .173562500000D+03  .865296494912D+00 -.770960685036D-08
     .422160441820D-09  .100000000000D+01  .163400000000D+04  .000000000000D+00
     .240000000000D+01  .630000000000D+02 -.190921127796D-07  .128000000000D+03
     .381606000000D+06  .400000000000D+01
 2 11  5  5 12  0  0.0  .334666576236D-03  .204636307899D-11  .000000000000D+00
     .160000000000D+02 -.196875000000D+02  .539915346784D-08 -.268090314923D-01
    -.100396573544D-05  .102374734124D-01  .750273466110D-05  .515374280739D+04
     .388800000000D+06  .130385160446D-06 -.509362509244D+00  .111758708954D-07
     .939173025515D+00  .223750000000D+03 -.300779207262D+01 -.839499254228D-08
    -.482162941165D-09  .100000000000D+01  .163400000000D+04  .000000000000D+00
     .240000000000D+01  .000000000000D+00 -.172294676304D-07  .160000000000D+02
     .381606000000D+06  .400000000000D+01
 4 11  5  5 12  0  0.0  .107044354081D-03  .105728759081D-10  .000000000000D+00
     .127000000000D+03 -.200625000000D+02  .524378985347D-08  .310467778254D+01
    -.115111470222D-05  .955902063288D-02  .792182981968D-05  .515363712502D+04
     .388800000000D+06 -.409781932831D-07 -.491959253952D+00 -.169500708580D-06
     .938280070560D+00  .215062500000D+03  .721005717536D+00 -.805390690612D-08
    -.525379027002D-09  .100000000000D+01  .163400000000D+04  .000000000000D+00
     .240000000000D+01  .000000000000D+00 -.605359673500D-08  .127000000000D+03
     .381606000000D+06  .400000000000D+01
 5 11  5  5 12  0  0.0 -.154998619109D-03 -.579802872380D-11  .000000000000D+00
     .111000000000D+03  .989687500000D+02  .446590030839D-08  .183270247592D+01
     .531598925591D-05  .222163740546D-02  .107251107693D-04  .515367049789D+04
     .388800000000D+06 -.298023223877D-07  .551803153959D+00  .633299350739D-07
     .954843030096D+00  .170500000000D+03  .249204159554D+00 -.791175812791D-08
    -.150006248362D-09  .100000000000D+01  .163400000000D+04  .000000000000D+00
     .240000000000D+01  .000000000000D+00 -.102445483208D-07  .111000000000D+03
     .381606000000D+06  .400000000000D+01
 6 11  5  5 12  0  0.0  .519231893122D-03 -.979980541160D-10  .000000000000D+00
     .780000000000D+02  .227187500000D+02  .546165607133D-08  .210239475782D+01
     .108219683170D-05  .674190639984D-02  .538304448128D-05  .515363868332D+04
     .388800000000D+06  .119209289551D-06 -.159386097996D+01  .223517417908D-07
     .935383715126D+00  .260937500000D+03 -.806302793153D+00 -.838284917932D-08
     .330728061866D-09  .100000000000D+01  .163400000000D+04  .000000000000D+00
     .240000000000D+01  .000000000000D+00 -.512227416039D-08  .780000000000D+02
     .381606000000D+06  .400000000000D+01
 7 11  5  5 12  0  0.0  .100750476122D-04  .113686837722D-11  .000000000000D+00
     .900000000000D+01 -.120125000000D+03  .405409744086D-08 -.160947539366D+01
    -.629574060440D-05  .435171695426D-02  .501610338688D-05  .515366488838D+04
     .388800000000D+06 -.931322574615D-07  .265751375019D+01 -.242143869400D-07
     .974528039679D+00  .290406250000D+03 -.312676701753D+01 -.796818904991D-08
    -.257867884090D-09  .100000000000D+01  .163400000000D+04  .000000000000D+00
     .240000000000D+01  .000000000000D+00 -.107102096081D-07  .900000000000D+01
     .381606000000D+06  .400000000000D+01
 8 11  5  5 12  0  0.0  .787898898125D-05  .113686837722D-12  .000000000000D+00
     .980000000000D+02 -.129125000000D+03  .358514933586D-08 -.214015720118D+01
    -.674277544022D-05  .115322137717D-01  .580586493015D-05  .515359815407D+04
     .388800000000D+06 -.745058059692D-07  .273255018319D+01 -.106170773506D-06
     .996268700785D+00  .286906250000D+03 -.307788547513D+01 -.769139180591D-08
    -.186079179516D-09  .100000000000D+01  .163400000000D+04  .000000000000D+00
     .340000000000D+01  .000000000000D+00 -.419095158577D-08  .980000000000D+02
     .381606000000D+06  .400000000000D+01
 9 11  5  5 12  0  0.0  .779936090112D-04  .238742359215D-11  .000000000000D+00
     .440000000000D+02 -.113031250000D+03  .380372986919D-08 -.230539128494D+01
    -.566244125366D-05  .172882041661D-01  .388734042645D-05  .515367154503D+04
     .388800000000D+06  .288709998131D-06  .262891389485D+01  .409781932831D-07
     .983436335957D+00  .312718750000D+03  .156314774342D+01 -.762353183642D-08
    -.271439877989D-09  .100000000000D+01  .163400000000D+04  .000000000000D+00
     .340000000000D+01  .000000000000D+00 -.558793544769D-08  .440000000000D+02
     .381606000000D+06  .400000000000D+01
11 11  5  5 12  0  0.0 -.148294959217D-03 -.318323145621D-11  .000000000000D+00
     .430000000000D+02 -.264375000000D+02  .655634452664D-08 -.145566306914D+01
    -.129826366901D-05  .116796760121D-01  .566616654396D-05  .515365777969D+04
     .388800000000D+06  .273808836937D-06 -.745466522667D+00  .521540641785D-07
     .887871112950D+00  .226625000000D+03  .926201453791D+00 -.884786854924D-08
    -.332871008271D-09  .100000000000D+01  .163400000000D+04  .000000000000D+00
     .240000000000D+01  .000000000000D+00 -.116415321827D-07  .430000000000D+02
     .381606000000D+06  .400000000000D+01
12 11  5  5 12  0  0.0 -.681355595589D-05  .272848410532D-11  .000000000000D+00
     .290000000000D+02 -.565625000000D+02  .383908848487D-08 -.167201576182D+01
    -.292994081974D-05  .375067046843D-02  .107232481241D-04  .515375927734D+04
     .388800000000D+06 -.614672899246D-07 -.257140137863D+01  .558793544769D-08
     .975136518510D+00  .181968750000D+03 -.202377418723D+00 -.752959935232D-08
     .475376944215D-09  .100000000000D+01  .163400000000D+04  .000000000000D+00
     .240000000000D+01  .000000000000D+00 -.121071934700D-07  .290000000000D+02
     .381606000000D+06  .400000000000D+01
13 11  5  5 12  0  0.0  .272290315479D-03 -.216004991671D-11  .000000000000D+00
     .105000000000D+03  .502187500000D+02  .406302638421D-08  .873564392949D+00
     .237673521042D-05  .475217401981D-02  .143609941006D-05  .515360508156D+04
     .388800000000D+06 -.447034835815D-07  .168193053550D+01 -.106170773506D-06
     .989599043675D+00  .367406250000D+03  .182890526431D+01 -.818962684512D-08
     .117862052285D-10  .100000000000D+01  .163400000000D+04  .000000000000D+00
     .240000000000D+01  .000000000000D+00 -.111758708954D-07  .105000000000D+03
     .381606000000D+06  .400000000000D+01
14 11  5  5 12  0  0.0  .148124061525D-03  .227373675443D-11  .000000000000D+00
     .480000000000D+02  .520000000000D+02  .419446043040D-08  .886532553148D+00
     .275857746601D-05  .568452465814D-02  .184029340744D-05  .515366213989D+04
     .388800000000D+06 -.540167093277D-07  .165785649665D+01  .689178705215D-07
     .982652412286D+00  .357187500000D+03 -.210421449917D+01 -.826605860023D-08
    -.125005206969D-10  .100000000000D+01  .163400000000D+04  .000000000000D+00
     .240000000000D+01  .000000000000D+00 -.884756445885D-08  .480000000000D+02
     .381606000000D+06  .400000000000D+01
16 11  5  5 12  0  0.0 -.169965438545D-03 -.261479726760D-11  .000000000000D+00
     .760000000000D+02 -.397187500000D+02  .386123226439D-08  .226227110453D+01
    -.201351940632D-05  .639895559289D-02  .111106783152D-04  .515380246544D+04
     .388800000000D+06 -.316649675369D-07 -.255360125999D+01  .521540641785D-07
     .976147779650D+00  .173593750000D+03 -.126255279611D+00 -.755352892051D-08
     .391087718945D-09  .100000000000D+01  .163400000000D+04  .000000000000D+00
     .240000000000D+01  .000000000000D+00 -.977888703346D-08  .760000000000D+02
     .381606000000D+06  .400000000000D+01
